NIMIQ 2                 
1 27632U 02062A   26193.10248225 -.00000075  00000+0  00000+0 0  9996
2 27632   9.5011  56.6304 0005271  53.0910 107.9713  1.00270139 44431
ANIK F2                 
1 28378U 04027A   26193.18454507 -.00000051  00000+0  00000+0 0  9991
2 28378   3.3495  79.1121 0003557  30.8308 135.4467  1.00271164 41510
ANIK F1R                
1 28868U 05036A   26193.13278869 -.00000077  00000+0  00000+0 0  9994
2 28868   4.3738  76.2694 0003722  26.9449 127.3180  1.00271312 46707
ANIK F3                 
1 31102U 07009A   26192.96915876  .00000001  00000+0  00000+0 0  9993
2 31102   1.2589  83.5537 0002480  37.2214  39.2783  1.00272014 46816
NIMIQ 4                 
1 33373U 08044A   26193.11903531 -.00000217  00000+0  00000+0 0  9998
2 33373   0.0037 356.5429 0001994  95.9832 158.3331  1.00272706 65239
TELSTAR 11N             
1 34111U 09009A   26193.12783779 -.00000248  00000+0  00000+0 0  9996
2 34111   0.0421 265.1992 0002290 201.6917 191.5979  1.00269871 46490
TERRESTAR-1             
1 35496U 09035A   26193.11068301 -.00000058  00000+0  00000+0 0  9997
2 35496   5.1963  48.7773 0002603  56.2611 113.8224  1.00273111 62387
NIMIQ 5                 
1 35873U 09050A   26193.12085534 -.00000254  00000+0  00000+0 0  9999
2 35873   0.0513 257.4081 0002527 208.8505 154.5635  1.00271740 61590
SKYTERRA 1              
1 37218U 10061A   26193.11522198 -.00000121  00000+0  00000+0 0  9992
2 37218   5.1762  50.8089 0002403  33.1779 146.2022  1.00276006 57442
TELSTAR 14R             
1 37602U 11021A   26193.19980311 -.00000278  00000+0  00000+0 0  9992
2 37602   0.0791  84.6575 0001630   0.2675 214.1063  1.00270500 56083
NIMIQ 6                 
1 38342U 12026A   26193.06257316 -.00000171  00000+0  00000+0 0  9990
2 38342   0.0151   0.4405 0002532 112.6014 108.3404  1.00271546 50662
ANIK G1                 
1 39127U 13014A   26193.11716551 -.00000071  00000+0  00000+0 0  9996
2 39127   0.0480 259.1906 0001622 224.6229 101.0719  1.00271183 48505
TELSTAR 12V             
1 41036U 15068A   26192.84708384  .00000000  00000+0  00000+0 0  9994
2 41036   0.0243  34.5481 0002051  74.1687 110.9911  1.00270214 38876
VIASAT-2                
1 42740U 17029A   26193.05009144 -.00000262  00000+0  00000+0 0  9999
2 42740   0.0197 305.6418 0000275 284.4902   7.9706  1.00270706 33453
LEO 1 (LEO VANTAGE 1)   
1 43113U 18004C   26193.19773191  .00002742  00000+0  19274-3 0  9994
2 43113  99.2416 114.7537 0349610   2.8769 357.4335 14.68009087441156
TELSTAR 19V             
1 43562U 18059A   26193.19964713 -.00000277  00000+0  00000+0 0  9999
2 43562   0.0366 171.9181 0002824 319.4887 167.5670  1.00270053 29394
TELSTAR 18V             
1 43611U 18069A   26193.20183685 -.00000291  00000+0  00000+0 0  9994
2 43611   0.0148 344.5823 0001599 127.6742  28.4984  1.00270412 28891
AMOS-17                 
1 44479U 19050A   26193.13858453  .00000112  00000+0  00000+0 0  9993
2 44479   0.0158   0.0057 0001285 117.6623 239.2369  1.00272315 25437
